NORAD_CAT_ID,OBJECT_NAME,OBJECT_TYPE,EPOCH,MEAN_MOTION,ECCENTRICITY,INCLINATION,RA_OF_ASC_NODE,ARG_OF_PERICENTER,MEAN_ANOMALY,BSTAR,MEAN_MOTION_DOT,MEAN_MOTION_DDOT,TLE_LINE0,TLE_LINE1,TLE_LINE2,SEMIMAJOR_AXIS,PERIOD,APOGEE,PERIGEE,DECAYED
49457.0,STARLINK-3132,PAYLOAD,2023-11-15 12:02:12,15.08843901,0.0001459,53.2173,53.33,94.4257,265.6902,0.00024512,3.616e-05,0.0,0 STARLINK-3132,1 49457U 21104BB  23319.50152926  .00003616  00000-0  24512-3 0  9998,2 49457  53.2173  53.3300 0001459  94.4257 265.6902 15.08843901111187,6917.868,95.437,540.743,538.724,0.0
49457.0,STARLINK-3132,PAYLOAD,2023-11-15 23:09:54,15.08843668,0.0001444,53.2175,51.2489,89.4709,270.6449,0.00035616,5.385e-05,0.0,0 STARLINK-3132,1 49457U 21104BB  23319.96520868  .00005385  00000-0  35616-3 0  9994,2 49457  53.2175  51.2489 0001444  89.4709 270.6449 15.08843668112323,6917.869,95.437,540.733,538.735,0.0
49457.0,STARLINK-3132,PAYLOAD,2023-11-16 15:03:45,15.08837062,0.0001377,53.2174,48.276,89.2081,270.9069,8.3813e-06,-1.55e-06,0.0,0 STARLINK-3132,1 49457U 21104BB  23320.62761141 -.00000155  00000-0  83813-5 0  9995,2 49457  53.2174  48.2760 0001377  89.2081 270.9069 15.08837062112429,6917.889,95.438,540.707,538.802,0.0
49457.0,STARLINK-3132,PAYLOAD,2023-11-17 13:19:09,15.08842371,0.0001407,53.2183,44.1127,87.5937,272.5216,3.6501e-05,2.93e-06,0.0,0 STARLINK-3132,1 49457U 21104BB  23321.55497455  .00000293  00000-0  36501-4 0  9995,2 49457  53.2183  44.1127 0001407  87.5937 272.5216 15.08842371111493,6917.873,95.437,540.711,538.765,0.0
49457.0,STARLINK-3132,PAYLOAD,2023-11-17 22:51:28,15.08841437,0.0001554,53.2197,42.3289,85.8033,274.3136,4.6082e-05,4.45e-06,0.0,0 STARLINK-3132,1 49457U 21104BB  23321.95241480  .00000445  00000-0  46082-4 0  9998,2 49457  53.2197  42.3289 0001554  85.8033 274.3136 15.08841437112627,6917.876,95.437,540.816,538.666,0.0
49457.0,STARLINK-3132,PAYLOAD,2023-11-18 11:34:33,15.08844915,0.0001391,53.2178,39.9496,86.1426,273.9726,3.6182e-05,2.88e-06,0.0,0 STARLINK-3132,1 49457U 21104BB  23322.48233208  .00000288  00000-0  36182-4 0  9991,2 49457  53.2178  39.9496 0001391  86.1426 273.9726 15.08844915111631,6917.865,95.437,540.693,538.768,0.0
49457.0,STARLINK-3132,PAYLOAD,2023-11-18 14:45:19,15.08839274,0.0001345,53.2184,39.3548,87.6125,272.5021,0.00020317,2.947e-05,0.0,0 STARLINK-3132,1 49457U 21104BB  23322.61481141  .00002947  00000-0  20317-3 0  9993,2 49457  53.2184  39.3548 0001345  87.6125 272.5021 15.08839274111658,6917.883,95.438,540.678,538.817,0.0
49457.0,STARLINK-3132,PAYLOAD,2023-11-19 11:25:20,15.08847188,0.0001389,53.2187,35.4871,91.0995,269.0157,9.2032e-05,1.177e-05,0.0,0 STARLINK-3132,1 49457U 21104BB  23323.47592915  .00001177  00000-0  92032-4 0  9998,2 49457  53.2187  35.4871 0001389  91.0995 269.0157 15.08847188112856,6917.858,95.437,540.684,538.763,0.0
49457.0,STARLINK-3132,PAYLOAD,2023-11-19 14:36:06,15.08850127,0.0001429,53.2188,34.8922,91.979,268.1366,0.00010991,1.462e-05,0.0,0 STARLINK-3132,1 49457U 21104BB  23323.60840619  .00001462  00000-0  10991-3 0  9990,2 49457  53.2188  34.8922 0001429  91.9790 268.1366 15.08850127111807,6917.849,95.437,540.703,538.726,0.0
49457.0,STARLINK-3132,PAYLOAD,2023-11-20 11:16:07,15.08842814,0.0001525,53.2186,31.0274,94.4994,265.6172,6.7483e-05,7.86e-06,0.0,0 STARLINK-3132,1 49457U 21104BB  23324.46953132  .00000786  00000-0  67483-4 0  9997,2 49457  53.2186  31.0274 0001525  94.4994 265.6172 15.08842814113000,6917.872,95.437,540.792,538.682,0.0
49457.0,STARLINK-3132,PAYLOAD,2023-11-21 12:42:17,15.08849905,0.0001541,53.2187,26.2704,91.8407,268.2762,2.9553e-05,1.82e-06,0.0,0 STARLINK-3132,1 49457U 21104BB  23325.52936751  .00000182  00000-0  29553-4 0  9999,2 49457  53.2187  26.2704 0001541  91.8407 268.2762 15.08849905112093,6917.85,95.437,540.781,538.649,0.0
49457.0,STARLINK-3132,PAYLOAD,2023-11-22 10:57:41,15.08844941,0.0001463,53.2195,22.1098,93.3887,266.7273,0.00010976,1.46e-05,0.0,0 STARLINK-3132,1 49457U 21104BB  23326.45672874  .00001460  00000-0  10976-3 0  9993,2 49457  53.2195  22.1098 0001463  93.3887 266.7273 15.08844941113305,6917.865,95.437,540.742,538.718,0.0
49457.0,STARLINK-3132,PAYLOAD,2023-11-23 02:51:33,15.08840243,0.0001563,53.2192,19.1355,113.6007,246.5149,5.0602e-05,5.17e-06,0.0,0 STARLINK-3132,1 49457U 21104BB  23327.11913323  .00000517  00000-0  50602-4 0  9997,2 49457  53.2192  19.1355 0001563 113.6007 246.5149 15.08840243113405,6917.88,95.438,540.826,538.663,0.0
49457.0,STARLINK-3132,PAYLOAD,2023-11-23 09:13:05,15.08841572,0.0001565,53.2189,17.9463,109.4983,250.6178,5.7797e-05,6.32e-06,0.0,0 STARLINK-3132,1 49457U 21104BB  23327.38409211  .00000632  00000-0  57797-4 0  9992,2 49457  53.2189  17.9463 0001565 109.4983 250.6178 15.08841572112374,6917.876,95.437,540.823,538.658,0.0
49457.0,STARLINK-3132,PAYLOAD,2023-11-24 02:42:20,15.08834763,0.0001342,53.2182,14.6759,93.365,266.7496,-1.5942e-05,-5.42e-06,0.0,0 STARLINK-3132,1 49457U 21104BB  23328.11274212 -.00000542  00000-0 -15942-4 0  9993,2 49457  53.2182  14.6759 0001342  93.3650 266.7496 15.08834763113550,6917.896,95.438,540.69,538.833,0.0
49457.0,STARLINK-3132,PAYLOAD,2023-11-24 10:39:17,15.08833675,0.0001376,53.217,13.1844,95.4554,264.6595,-9.8201e-05,-1.85e-05,0.0,0 STARLINK-3132,1 49457U 21104BB  23328.44394719 -.00001850  00000-0 -98201-4 0  9996,2 49457  53.2170  13.1844 0001376  95.4554 264.6595 15.08833675112534,6917.9,95.438,540.717,538.813,0.0
49457.0,STARLINK-3132,PAYLOAD,2023-11-25 10:30:02,15.08853371,0.0001575,53.2179,8.7261,90.0938,270.0234,0.00021153,3.081e-05,0.0,0 STARLINK-3132,1 49457U 21104BB  23329.43753033  .00003081  00000-0  21153-3 0  9991,2 49457  53.2179   8.7261 0001575  90.0938 270.0234 15.08853371112686,6917.84,95.437,540.794,538.615,0.0
49457.0,STARLINK-3132,PAYLOAD,2023-11-26 02:23:54,15.08842073,0.0001502,53.2174,5.7533,79.9669,280.1493,0.00027458,4.085e-05,0.0,0 STARLINK-3132,1 49457U 21104BB  23330.09993419  .00004085  00000-0  27458-3 0  9998,2 49457  53.2174   5.7533 0001502  79.9669 280.1493 15.08842073113853,6917.874,95.437,540.778,538.7,0.0
49457.0,STARLINK-3132,PAYLOAD,2023-11-26 08:45:26,15.08848747,0.0001617,53.2177,4.5635,80.7455,279.3719,0.00027931,4.161e-05,0.0,0 STARLINK-3132,1 49457U 21104BB  23330.36488977  .00004161  00000-0  27931-3 0  9997,2 49457  53.2177   4.5635 0001617  80.7455 279.3719 15.08848747112827,6917.854,95.437,540.837,538.6,0.0
49457.0,STARLINK-3132,PAYLOAD,2023-11-27 02:14:44,15.08812732,0.0001489,53.2193,1.2912,81.8888,278.2273,-0.00037999,-6.326e-05,0.0,0 STARLINK-3132,1 49457U 21104BB  23331.09357247 -.00006326  00000-0 -37999-3 0  9995,2 49457  53.2193   1.2912 0001489  81.8888 278.2273 15.08812732114006,6917.964,95.439,540.859,538.799,0.0
49457.0,STARLINK-3132,PAYLOAD,2023-11-27 11:47:03,15.08819005,0.0001668,53.2175,359.5061,97.9393,262.1788,-0.00025778,-4.386e-05,0.0,0 STARLINK-3132,1 49457U 21104BB  23331.49100872 -.00004386  00000-0 -25778-3 0  9995,2 49457  53.2175 359.5061 0001668  97.9393 262.1788 15.08819005114067,6917.945,95.439,540.963,538.656,0.0
49457.0,STARLINK-3132,PAYLOAD,2023-11-28 08:27:00,15.08861383,0.0001922,53.2181,355.6425,108.3567,251.7635,0.00017829,2.552e-05,0.0,0 STARLINK-3132,1 49457U 21104BB  23332.35209332  .00002552  00000-0  17829-3 0  9991,2 49457  53.2181 355.6425 0001922 108.3567 251.7635 15.08861383114193,6917.815,95.436,541.01,538.35,0.0
49457.0,STARLINK-3132,PAYLOAD,2023-11-29 01:56:17,15.08828601,0.0001927,53.2181,352.3714,93.5571,266.5641,0.00040202,6.114e-05,0.0,0 STARLINK-3132,1 49457U 21104BB  23333.08075462  .00006114  00000-0  40202-3 0  9996,2 49457  53.2181 352.3714 0001927  93.5571 266.5641 15.08828601114303,6917.915,95.438,541.113,538.447,0.0
49457.0,STARLINK-3132,PAYLOAD,2023-11-29 06:42:26,15.0882767,0.0001968,53.2191,351.478,105.5341,254.5869,0.00039596,6.017e-05,0.0,0 STARLINK-3132,1 49457U 21104BB  23333.27947359  .00006017  00000-0  39596-3 0  9996,2 49457  53.2191 351.4780 0001968 105.5341 254.5869 15.08827670113269,6917.918,95.438,541.145,538.422,0.0
49457.0,STARLINK-3132,PAYLOAD,2023-11-30 08:08:36,15.08855124,0.000208,53.2189,346.7212,98.7186,261.4042,-3.1169e-05,-7.85e-06,0.0,0 STARLINK-3132,1 49457U 21104BB  23334.33930879 -.00000785  00000-0 -31169-4 0  9990,2 49457  53.2189 346.7212 0002080  98.7186 261.4042 15.08855124114490,6917.834,95.437,541.138,538.26,0.0
49457.0,STARLINK-3132,PAYLOAD,2023-12-01 01:37:51,15.08836024,0.0002305,53.2193,343.4504,104.5236,255.6012,-1.0055e-05,-4.48e-06,0.0,0 STARLINK-3132,1 49457U 21104BB  23335.06795857 -.00000448  00000-0 -10055-4 0  9993,2 49457  53.2193 343.4504 0002305 104.5236 255.6012 15.08836024114608,6917.893,95.438,541.352,538.163,0.0
49457.0,STARLINK-3132,PAYLOAD,2023-12-01 07:59:24,15.08837995,0.0002039,53.2191,342.2612,98.624,261.4983,4.1336e-06,-2.22e-06,0.0,0 STARLINK-3132,1 49457U 21104BB  23335.33291786 -.00000222  00000-0  41336-5 0  9991,2 49457  53.2191 342.2612 0002039  98.6240 261.4983 15.08837995113570,6917.887,95.438,541.162,538.341,0.0
49457.0,STARLINK-3132,PAYLOAD,2023-12-02 07:50:08,15.08872064,0.0002121,53.2197,337.7988,89.9677,270.1559,0.00028836,4.308e-05,0.0,0 STARLINK-3132,1 49457U 21104BB  23336.32648656  .00004308  00000-0  28836-3 0  9999,2 49457  53.2197 337.7988 0002121  89.9677 270.1559 15.08872064114797,6917.782,95.436,541.115,538.18,0.0
49457.0,STARLINK-3132,PAYLOAD,2023-12-03 09:16:23,15.08816219,0.0001711,53.2185,333.0434,77.1624,282.9559,-9.7241e-05,-1.834e-05,0.0,0 STARLINK-3132,1 49457U 21104BB  23337.38638151 -.00001834  00000-0 -97241-4 0  9995,2 49457  53.2185 333.0434 0001711  77.1624 282.9559 15.08816219114953,6917.953,95.439,541.002,538.634,0.0
49457.0,STARLINK-3132,PAYLOAD,2023-12-04 09:07:07,15.08862232,0.0002347,53.2201,328.5777,80.0892,280.0365,-1.0649e-05,-4.58e-06,0.0,0 STARLINK-3132,1 49457U 21104BB  23338.37994803 -.00000458  00000-0 -10649-4 0  9992,2 49457  53.2201 328.5777 0002347  80.0892 280.0365 15.08862232115105,6917.812,95.436,541.301,538.054,0.0
